ONEWEB-0707             
1 61612U 24188U   25210.76114554  .00000684  00000+0  19219-2 0  9993
2 61612  87.8795 100.5447 0001465  59.8949 300.2323 13.10374620 41097
ONEWEB-0708             
1 61613U 24188V   25210.70301551  .00000049  00000+0  10385-3 0  9994
2 61613  87.8839 100.5852 0001019  68.6134 291.5102 13.10370336 41060
